EOSSAT-1                
1 55053U 23001AW  26068.73619225  .00007695  00000+0  24844-3 0  9992
2 55053  97.3357 130.2294 0011263 110.3168 249.9285 15.32339828176689
STARLINK-31251          
1 58836U 24017L   26068.67215167  .00000182  00000+0  18285-4 0  9999
2 58836  53.1599 204.3899 0000941  77.6945 282.4161 15.30189076120165
